#aV2006  3 13  0  0   .00000000      96 DD+AD WGS84 FIT  NGA
## 1366  86400.00000000   900.00000000 53807  .0000000000000
+   29     1  2  3  4  5  6  7  8  9 10 11 13 14 15 16 17 18
+         19 20 21 22 23 24 25 26 27 28 29 30  0  0  0  0  0
+          0  0  0  0  0  0  0  0  0  0  0  0  0  0  0  0  0
+          0  0  0  0  0  0  0  0  0  0  0  0  0  0  0  0  0
+          0  0  0  0  0  0  0  0  0  0  0  0  0  0  0  0  0
++         0  0  0  0  0  0  0  0  0  0  0  0  0  0  0  0  0
++         0  0  0  0  0  0  0  0  0  0  0  0  0  0  0  0  0
++         0  0  0  0  0  0  0  0  0  0  0  0  0  0  0  0  0
++         0  0  0  0  0  0  0  0  0  0  0  0  0  0  0  0  0
++         0  0  0  0  0  0  0  0  0  0  0  0  0  0  0  0  0
%c cc cc ccc ccc cccc cccc cccc cccc ccccc ccccc ccccc ccccc
%c cc cc ccc ccc cccc cccc cccc cccc ccccc ccccc ccccc ccccc
%f  0.0000000  0.000000000  0.00000000000  0.000000000000000
%f  0.0000000  0.000000000  0.00000000000  0.000000000000000
%i    0    0    0    0      0      0      0      0         0
%i    0    0    0    0      0      0      0      0         0
/*      NGA, ST. LOUIS,MO.                                  
/*   EPHEMERIS COMPUTED FROM  3 DAYS OF DATA                
/* CCCCCCCCCCCCCCCCCCCCCCCCCCCCCCCCCCCCCCCCCCCCCCCCCCCCCCCCC
/* CCCCCCCCCCCCCCCCCCCCCCCCCCCCCCCCCCCCCCCCCCCCCCCCCCCCCCCCC
*  2006  3 13  3 30   .00000000                                                 
P  1   2236.248603 -15425.402246  21697.603687     41.186489                    
V  1  26219.613070  -6520.600413  -7445.279789       .017898                    
P  2   8915.439931  21162.364656  13228.457220    -14.759588                    
V  2 -14259.630481  -9917.608918  24782.535256       .018198                    
P  3  -4881.480089 -15293.809410 -21309.955784     81.434341                    
V  3  24968.761519  -9843.726251   1658.498634       .030093                    
P  4  -1710.241882  17754.486699  19531.982021    175.213668                    
V  4 -19061.381870 -16288.327717  13459.934422       .110099                    
P  5  14314.789586   7706.674405  20833.486517   -366.958029                    
V  5  -4576.217433  26577.586833  -6459.226103       .794645                    
P  6  25713.353100  -5543.401385   4164.937557    397.519708                    
V  6  -3657.410937   4955.528878  30505.719835       .294206                    
P  7  25409.143245  -3248.226312   7883.441808    512.267513                    
V  7  -7791.100917   6210.734813  28902.025984       .066183                    
P  8 -10425.457847  10845.647570 -22027.770197    -59.273001                    
V  8 -19577.271229 -19449.182799   -702.807499      -.011410                    
P  9  21530.603684  15281.129615   3543.061338     11.581659                    
V  9   2152.268002   5351.193160 -31111.770551       .016666                    
P 10   3147.012840  22952.637987 -12784.122721     80.068664                    
V 10  -6023.151869  15172.537943  26246.433070       .006513                    
P 11 -23367.403386 -12177.979404   4184.369146    313.082573                    
V 11  -1889.587829  -6764.649193 -29526.223312       .027126                    
P 13 -25763.735558   6010.052133   1849.247207     47.085875                    
V 13   1834.109178  -2486.512502  32346.111125       .025577                    
P 14  16787.257158 -14844.360260  14290.878508    -17.943582                    
V 14  17703.464393  -3608.892758 -24705.157636       .006704                    
P 15  11364.336651 -10348.838325 -21829.139348    579.460299                    
V 15  18671.098930  19959.468788   -118.689135       .060057                    
P 16   1576.155235 -25668.794689  -6353.026510     30.840862                    
V 16   4568.663445  -7337.663378  30466.379363       .020016                    
P 17 -17885.072963  14836.649486  12763.397000     66.933951                    
V 17 -16247.626426   2526.460158 -25748.987337       .065319                    
P 18  16082.672669 -10609.177084 -18057.066688   -225.424487                    
V 18  -4483.399430  22869.524901 -17627.047346      -.019885                    
P 19 -16996.899398  -9032.611418 -18214.203220    -19.070163                    
V 19  22298.116087  -7047.936279 -17180.078838       .012305                    
P 20 -13746.008850  -7429.381104  21394.555333    -30.804106                    
V 20   6350.255872 -26633.375884  -5111.069166       .008226                    
P 21  17981.139356  -2008.285287 -19560.556301     12.892266                    
V 21  16692.237006  18428.910196  12909.136155       .031429                    
P 22  12105.728818 -22251.239055  -7833.631057     75.595685                    
V 22   -110.000063  10537.277459 -29517.114091       .031408                    
P 23 -23187.748477  -2080.379522  12834.363131    147.367835                    
V 23  15042.859928  -6770.850753  25749.855482      -.012819                    
P 24 -14350.633067   6844.795255  21546.160038     92.337490                    
V 24 -18349.818992 -19491.391584  -5850.410770       .029681                    
P 25  -2461.212220 -18869.650728  18886.097432    -30.851824                    
V 25  19301.724501  12986.558219  15949.242822       .280634                    
P 26  13501.211374  10454.785488 -20876.949612    -58.315092                    
V 26 -24387.751243   7207.898357 -11807.167456      -.094798                    
P 27 -17993.920764   2434.201545 -18904.406288     39.564484                    
V 27 -18587.928807 -17047.918646  14686.973821       .016336                    
P 28 -12928.106471  20053.680446 -11014.500594     31.629757                    
V 28    820.439550 -14767.365288 -27513.127889      -.007733                    
P 29   9254.914025  12039.700547 -21580.082032    558.925340                    
V 29 -26469.169380   8744.905368  -6145.515326       .103977                    
P 30  15911.735903  -3511.288330  20679.994629     27.757058                    
V 30  -4224.277615  26656.022477   7788.319595       .003195                    
EOF
